[{"OBJECT_NAME":"QIANFAN-93","OBJECT_ID":"2025-233C","EPOCH":"2026-03-09T23:30:37.871136","MEAN_MOTION":13.51005194,"ECCENTRICITY":0.00019783,"INCLINATION":88.9948,"RA_OF_ASC_NODE":53.2305,"ARG_OF_PERICENTER":90.5673,"MEAN_ANOMALY":269.5705,"EPHEMERIS_TYPE":0,"CLASSIFICATION_TYPE":"U","NORAD_CAT_ID":66035,"ELEMENT_SET_NO":999,"REV_AT_EPOCH":1978,"BSTAR":7.8072212e-5,"MEAN_MOTION_DOT":6.2e-7,"MEAN_MOTION_DDOT":0},{"OBJECT_NAME":"OSCAR 31","OBJECT_ID":"1988-074B","EPOCH":"2026-03-09T21:25:26.006304","MEAN_MOTION":13.42598067,"ECCENTRICITY":0.00942912,"INCLINATION":90.0436,"RA_OF_ASC_NODE":20.9062,"ARG_OF_PERICENTER":353.1625,"MEAN_ANOMALY":73.1029,"EPHEMERIS_TYPE":0,"CLASSIFICATION_TYPE":"U","NORAD_CAT_ID":19420,"ELEMENT_SET_NO":999,"REV_AT_EPOCH":83820,"BSTAR":0.00018522135,"MEAN_MOTION_DOT":1.16e-6,"MEAN_MOTION_DDOT":0}]
